     2.10           G: GLONASS NAV DATA                     RINEX VERSION / TYPE
teqc  2015Jun23                         20220414 01:25:41UTCPGM / RUN BY / DATE
Linux 2.4.21-27.ELsmp|Opteron|gcc -static|Linux x86_64|=+   COMMENT
  2022     4     3   -9.313225746155D-10                    CORR TO SYSTEM TIME
                                                            END OF HEADER
 7 22  4  4 23 45  0.0 3.348104655743D-05-0.000000000000D+00 8.460000000000D+04
   -1.370274902344D+04 6.134233474731D-01 9.313225746155D-10 0.000000000000D+00
    1.990499365234D+04-9.382667541504D-01-9.313225746155D-10 5.000000000000D+00
   -8.052244140625D+03-3.348948478699D+00 0.000000000000D+00 0.000000000000D+00
12 22  4  4 23 45  0.0 1.775939017534D-05 0.000000000000D+00 8.460000000000D+04
    1.553877783203D+04 3.302307128906D-01 3.725290298462D-09 0.000000000000D+00
    2.004715527344D+04 2.051630020142D-01 9.313225746155D-10-1.000000000000D+00
   -2.587900878906D+03 3.545545578003D+00-1.862645149231D-09 0.000000000000D+00
